{"fetched_at":"2026-03-29T02:12:04Z","count":15717,"tles":[{"name":"STARLINK-4686","line1":"1 53715U 22107R   26087.60825882 -.00000890  00000+0 -37821-4 0  9998","line2":"2 53715  53.2190 168.9101 0001745  94.2293 265.8899 15.08832029197276","category":"Starlink"}]}