{
  "norad_id": 53715,
  "name": "STARLINK-4686",
  "history": [
    {
      "epoch": "2026-03-28T14:35:53.562048Z",
      "apogee_km": 540.9756193994317,
      "perigee_km": 538.5598870596032,
      "latitude_deg": 2.383584913212621e-05,
      "longitude_deg": 123.91067945850138,
      "height_km": 540.7521609192312,
      "semi_major_axis_km": 6917.904753229517,
      "eccentricity": 0.0001746,
      "inclination_deg": 53.219,
      "raan_deg": 168.9101,
      "arg_perigee_deg": 94.2293,
      "mean_anomaly_deg": 265.8899,
      "mean_motion_rev_day": 15.08832029
    }
  ]
}